{"type": "FeatureCollection", "features": [ {"type": "Feature", "properties": {"norad_id": 40664, "name": "SKY MEXICO-1", "group": "intelsat", "lat": 0.025782446896718672, "lon": 164.92338842342375, "alt_km": 35790.69937411222, "timestamp": "2025-12-11T10:53:15.553469+00:00", "meta": {"OBJECT_NAME": "SKY MEXICO-1", "OBJECT_ID": "2015-026B", "EPOCH": "2025-12-11T02:51:53.454816", "MEAN_MOTION": 1.00270508, "ECCENTRICITY": 0.0002696, "INCLINATION": 0.0319, "RA_OF_ASC_NODE": 72.6879, "ARG_OF_PERICENTER": 204.165, "MEAN_ANOMALY": 127.4333, "EPHEMERIS_TYPE": 0, "CLASSIFICATION_TYPE": "U", "NORAD_CAT_ID": 40664, "ELEMENT_SET_NO": 999, "REV_AT_EPOCH": 3856, "BSTAR": 0, "MEAN_MOTION_DOT": -2.29e-06, "MEAN_MOTION_DDOT": 0}, "tle": {"line1": "1 40664U 15026B   25345.11936869 -.00000229  00000+0  00000+0 0  9998", "line2": "2 40664   0.0319  72.6879 0002696 204.1650 127.4333  1.00270508 38563"}}, "geometry": {"type": "Point", "coordinates": [164.92338842342375, 0.025782446896718672]}}, {"type": "Feature", "properties": {"norad_id": 40874, "name": "INTELSAT 34 (IS-34)", "group": "intelsat", "lat": -0.01860757901307157, "lon": -171.77684728471502, "alt_km": 35784.900987419736, "timestamp": "2025-12-11T10:53:15.553486+00:00", "meta": {"OBJECT_NAME": "INTELSAT 34 (IS-34)", "OBJECT_ID": "2015-039A", "EPOCH": "2025-12-11T02:58:30.321984", "MEAN_MOTION": 1.00269833, "ECCENTRICITY": 4.72e-05, "INCLINATION": 0.0116, "RA_OF_ASC_NODE": 322.3634, "ARG_OF_PERICENTER": 199.147, "MEAN_ANOMALY": 267.7034, "EPHEMERIS_TYPE": 0, "CLASSIFICATION_TYPE": "U", "NORAD_CAT_ID": 40874, "ELEMENT_SET_NO": 999, "REV_AT_EPOCH": 3773, "BSTAR": 0, "MEAN_MOTION_DOT": -2.8e-06, "MEAN_MOTION_DDOT": 0}, "tle": {"line1": "1 40874U 15039A   25345.12396206 -.00000280  00000+0  00000+0 0  9998", "line2": "2 40874   0.0116 322.3634 0000472 199.1470 267.7034  1.00269833 37731"}}, "geometry": {"type": "Point", "coordinates": [-171.77684728471502, -0.01860757901307157]}}, {"type": "Feature", "properties": {"norad_id": 41581, "name": "INTELSAT 31 (IS-31)", "group": "intelsat", "lat": -0.010324654060371315, "lon": 148.64264858540992, "alt_km": 35782.83324784038, "timestamp": "2025-12-11T10:53:15.553501+00:00", "meta": {"OBJECT_NAME": "INTELSAT 31 (IS-31)", "OBJECT_ID": "2016-035A", "EPOCH": "2025-12-11T02:47:08.911104", "MEAN_MOTION": 1.00272585, "ECCENTRICITY": 0.0001971, "INCLINATION": 0.0158, "RA_OF_ASC_NODE": 272.679, "ARG_OF_PERICENTER": 304.2877, "MEAN_ANOMALY": 169.8397, "EPHEMERIS_TYPE": 0, "CLASSIFICATION_TYPE": "U", "NORAD_CAT_ID": 41581, "ELEMENT_SET_NO": 999, "REV_AT_EPOCH": 3479, "BSTAR": 0, "MEAN_MOTION_DOT": -1.45e-06, "MEAN_MOTION_DDOT": 0}, "tle": {"line1": "1 41581U 16035A   25345.11607536 -.00000145  00000+0  00000+0 0  9991", "line2": "2 41581   0.0158 272.6790 0001971 304.2877 169.8397  1.00272585 34793"}}, "geometry": {"type": "Point", "coordinates": [148.64264858540992, -0.010324654060371315]}}, {"type": "Feature", "properties": {"norad_id": 41747, "name": "INTELSAT 36 (IS-36)", "group": "intelsat", "lat": -0.022212688882723482, "lon": -47.794003313079834, "alt_km": 35780.39902326745, "timestamp": "2025-12-11T10:53:15.553515+00:00", "meta": {"OBJECT_NAME": "INTELSAT 36 (IS-36)", "OBJECT_ID": "2016-053A", "EPOCH": "2025-12-11T03:33:49.440096", "MEAN_MOTION": 1.00270338, "ECCENTRICITY": 0.0001465, "INCLINATION": 0.0146, "RA_OF_ASC_NODE": 13.5614, "ARG_OF_PERICENTER": 307.9865, "MEAN_ANOMALY": 240.5068, "EPHEMERIS_TYPE": 0, "CLASSIFICATION_TYPE": "U", "NORAD_CAT_ID": 41747, "ELEMENT_SET_NO": 999, "REV_AT_EPOCH": 3406, "BSTAR": 0, "MEAN_MOTION_DOT": -1.8e-07, "MEAN_MOTION_DDOT": 0}, "tle": {"line1": "1 41747U 16053A   25345.14848889 -.00000018  00000+0  00000+0 0  9995", "line2": "2 41747   0.0146  13.5614 0001465 307.9865 240.5068  1.00270338 34062"}}, "geometry": {"type": "Point", "coordinates": [-47.794003313079834, -0.022212688882723482]}}, {"type": "Feature", "properties": {"norad_id": 41945, "name": "INTELSAT 32E (IS-32E)", "group": "intelsat", "lat": 0.013274830844083645, "lon": -159.46402404432195, "alt_km": 35788.700658086884, "timestamp": "2025-12-11T10:53:15.553527+00:00", "meta": {"OBJECT_NAME": "INTELSAT 32E (IS-32E)", "OBJECT_ID": "2017-007B", "EPOCH": "2025-12-11T03:01:59.988000", "MEAN_MOTION": 1.0026961, "ECCENTRICITY": 5.12e-05, "INCLINATION": 0.034, "RA_OF_ASC_NODE": 79.4716, "ARG_OF_PERICENTER": 277.6306, "MEAN_ANOMALY": 85.3053, "EPHEMERIS_TYPE": 0, "CLASSIFICATION_TYPE": "U", "NORAD_CAT_ID": 41945, "ELEMENT_SET_NO": 999, "REV_AT_EPOCH": 3233, "BSTAR": 0, "MEAN_MOTION_DOT": -2.63e-06, "MEAN_MOTION_DDOT": 0}, "tle": {"line1": "1 41945U 17007B   25345.12638875 -.00000263  00000+0  00000+0 0  9997", "line2": "2 41945   0.0340  79.4716 0000512 277.6306  85.3053  1.00269610 32335"}}, "geometry": {"type": "Point", "coordinates": [-159.46402404432195, 0.013274830844083645]}}, {"type": "Feature", "properties": {"norad_id": 42818, "name": "INTELSAT 35E (IS-35E)", "group": "intelsat", "lat": -0.022775562913072925, "lon": -150.815560082279, "alt_km": 35782.121689907646, "timestamp": "2025-12-11T10:53:15.553539+00:00", "meta": {"OBJECT_NAME": "INTELSAT 35E (IS-35E)", "OBJECT_ID": "2017-041A", "EPOCH": "2025-12-11T03:04:29.747712", "MEAN_MOTION": 1.00269178, "ECCENTRICITY": 0.0002211, "INCLINATION": 0.0179, "RA_OF_ASC_NODE": 355.4658, "ARG_OF_PERICENTER": 273.4798, "MEAN_ANOMALY": 182.7563, "EPHEMERIS_TYPE": 0, "CLASSIFICATION_TYPE": "U", "NORAD_CAT_ID": 42818, "ELEMENT_SET_NO": 999, "REV_AT_EPOCH": 3093, "BSTAR": 0, "MEAN_MOTION_DOT": -2.33e-06, "MEAN_MOTION_DDOT": 0}, "tle": {"line1": "1 42818U 17041A   25345.12812208 -.00000233  00000+0  00000+0 0  9996", "line2": "2 42818   0.0179 355.4658 0002211 273.4798 182.7563  1.00269178 30935"}}, "geometry": {"type": "Point", "coordinates": [-150.815560082279, -0.022775562913072925]}}, {"type": "Feature", "properties": {"norad_id": 42950, "name": "INTELSAT 37E (IS-37E)", "group": "intelsat", "lat": -0.03546914455338947, "lon": -134.29065916182148, "alt_km": 35774.448059710994, "timestamp": "2025-12-11T10:53:15.553551+00:00", "meta": {"OBJECT_NAME": "INTELSAT 37E (IS-37E)", "OBJECT_ID": "2017-059A", "EPOCH": "2025-12-11T03:09:14.294016", "MEAN_MOTION": 1.00271883, "ECCENTRICITY": 0.0003164, "INCLINATION": 0.0193, "RA_OF_ASC_NODE": 333.2898, "ARG_OF_PERICENTER": 282.1901, "MEAN_ANOMALY": 213.9287, "EPHEMERIS_TYPE": 0, "CLASSIFICATION_TYPE": "U", "NORAD_CAT_ID": 42950, "ELEMENT_SET_NO": 999, "REV_AT_EPOCH": 3018, "BSTAR": 0, "MEAN_MOTION_DOT": -1.35e-06, "MEAN_MOTION_DDOT": 0}, "tle": {"line1": "1 42950U 17059A   25345.13141544 -.00000135  00000+0  00000+0 0  9992", "line2": "2 42950   0.0193 333.2898 0003164 282.1901 213.9287  1.00271883 30182"}}, "geometry": {"type": "Point", "coordinates": [-134.29065916182148, -0.03546914455338947]}}, {"type": "Feature", "properties": {"norad_id": 43632, "name": "AZERSPACE 2 (IS-38)", "group": "intelsat", "lat": -0.03189018779393413, "lon": -71.16394846266301, "alt_km": 35780.34412388852, "timestamp": "2025-12-11T10:53:15.553563+00:00", "meta": {"OBJECT_NAME": "AZERSPACE 2 (IS-38)", "OBJECT_ID": "2018-074A", "EPOCH": "2025-12-11T03:27:12.572928", "MEAN_MOTION": 1.00271572, "ECCENTRICITY": 0.0001462, "INCLINATION": 0.0185, "RA_OF_ASC_NODE": 357.8949, "ARG_OF_PERICENTER": 269.7233, "MEAN_ANOMALY": 269.3983, "EPHEMERIS_TYPE": 0, "CLASSIFICATION_TYPE": "U", "NORAD_CAT_ID": 43632, "ELEMENT_SET_NO": 999, "REV_AT_EPOCH": 2656, "BSTAR": 0, "MEAN_MOTION_DOT": 1.42e-06, "MEAN_MOTION_DDOT": 0}, "tle": {"line1": "1 43632U 18074A   25345.14389552  .00000142  00000+0  00000+0 0  9999", "line2": "2 43632   0.0185 357.8949 0001462 269.7233 269.3983  1.00271572 26568"}}, "geometry": {"type": "Point", "coordinates": [-71.16394846266301, -0.03189018779393413]}}, {"type": "Feature", "properties": {"norad_id": 43633, "name": "HORIZONS-3E", "group": "intelsat", "lat": -0.005702866539928661, "lon": 52.73815683259761, "alt_km": 35790.21496105825, "timestamp": "2025-12-11T10:53:15.553575+00:00", "meta": {"OBJECT_NAME": "HORIZONS-3E", "OBJECT_ID": "2018-074B", "EPOCH": "2025-12-10T19:28:56.939232", "MEAN_MOTION": 1.00269493, "ECCENTRICITY": 0.0001199, "INCLINATION": 0.0426, "RA_OF_ASC_NODE": 178.6641, "ARG_OF_PERICENTER": 100.4377, "MEAN_ANOMALY": 261.9253, "EPHEMERIS_TYPE": 0, "CLASSIFICATION_TYPE": "U", "NORAD_CAT_ID": 43633, "ELEMENT_SET_NO": 999, "REV_AT_EPOCH": 2645, "BSTAR": 0, "MEAN_MOTION_DOT": -2.6e-07, "MEAN_MOTION_DDOT": 0}, "tle": {"line1": "1 43633U 18074B   25344.81177013 -.00000026  00000+0  00000+0 0  9992", "line2": "2 43633   0.0426 178.6641 0001199 100.4377 261.9253  1.00269493 26457"}}, "geometry": {"type": "Point", "coordinates": [52.73815683259761, -0.005702866539928661]}}, {"type": "Feature", "properties": {"norad_id": 44333, "name": "AT&T T-16", "group": "intelsat", "lat": 0.028034781492333304, "lon": 142.84475700987454, "alt_km": 35784.828539904636, "timestamp": "2025-12-11T10:53:15.553587+00:00", "meta": {"OBJECT_NAME": "AT&T T-16", "OBJECT_ID": "2019-034A", "EPOCH": "2025-12-10T23:20:04.800192", "MEAN_MOTION": 1.00268632, "ECCENTRICITY": 5.11e-05, "INCLINATION": 0.0297, "RA_OF_ASC_NODE": 74.5044, "ARG_OF_PERICENTER": 72.1437, "MEAN_ANOMALY": 182.4372, "EPHEMERIS_TYPE": 0, "CLASSIFICATION_TYPE": "U", "NORAD_CAT_ID": 44333, "ELEMENT_SET_NO": 999, "REV_AT_EPOCH": 2374, "BSTAR": 0, "MEAN_MOTION_DOT": -1.09e-06, "MEAN_MOTION_DDOT": 0}, "tle": {"line1": "1 44333U 19034A   25344.97227778 -.00000109  00000+0  00000+0 0  9990", "line2": "2 44333   0.0297  74.5044 0000511  72.1437 182.4372  1.00268632 23743"}}, "geometry": {"type": "Point", "coordinates": [142.84475700987454, 0.028034781492333304]}}]}